SL-14 R/B               
1 16792U 86046B   26012.29547388  .00000505  00000+0  55406-4 0  9999
2 16792  82.4833 133.4588 0024334  56.5730 303.7808 14.85525876118032
SL-14 R/B               
1 16882U 86055B   26012.23038059  .00000580  00000+0  64121-4 0  9990
2 16882  82.5202 179.7209 0019521 155.0270 292.6549 14.85569294110988
AJISAI (EGS)            
1 16908U 86061A   26012.26577844 -.00000084  00000+0  92491-4 0  9990
2 16908  50.0087 266.8534 0011307 142.5322 314.0198 12.44514850460977
COSMOS 1812             
1 17295U 87003A   26012.21088645  .00143289  00000+0  65172-3 0  9997
2 17295  82.4841 258.8540 0003162  51.8379 308.3175 15.83442833135467
SL-14 R/B               
1 17567U 87024B   26011.87803761  .00000581  00000+0  63393-4 0  9998
2 17567  82.5296 146.1435 0019728  89.1665 271.1812 14.86065467 79696
COSMOS 1833             
1 17589U 87027A   26012.29936149  .00000311  00000+0  19195-3 0  9990
2 17589  70.9190  84.5403 0024000 289.5206  70.3323 14.13042042  2359
SL-16 R/B               
1 17590U 87027B   26012.29516878  .00000123  00000+0  84707-4 0  9998
2 17590  71.0032  35.3309 0006575 227.0188 133.0385 14.17160071  7357
SL-14 R/B               
1 17912U 87038B   26012.31531077  .00000544  00000+0  60374-4 0  9990
2 17912  82.5022 349.8989 0019159 355.9580   4.1478 14.85298812 70864
COSMOS 1844             
1 17973U 87041A   26012.32328447 -.00000155  00000+0 -55146-4 0  9998
2 17973  70.8994 153.0662 0028342 108.4540 251.9666 14.14538835995617
SL-14 R/B               
1 18153U 87055B   26012.16718622  .00000466  00000+0  50998-4 0  9997
2 18153  82.4978  42.3073 0020197 196.3380 163.7188 14.85557069 61546
COSMOS 1867             
1 18187U 87060A   26012.27238449 -.00000048  00000+0  19796-4 0  9994
2 18187  65.0111 104.6999 0013823 274.1084  85.8420 14.31492472 11862
SL-14 R/B               
1 18749U 88001B   26012.15877591  .00000432  00000+0  47120-4 0  9996
2 18749  82.5117 248.5376 0019510  67.0883 293.2390 14.85459925 33633
