CCSDS_OMM_VERS = 2.0
CREATION_DATE  = 
ORIGINATOR     = 

OBJECT_NAME    = SL-14 R/B
OBJECT_ID      = 1986-046B
CENTER_NAME    = EARTH
REF_FRAME      = TEME
TIME_SYSTEM    = UTC
MEAN_ELEMENT_THEORY = SGP/SGP4

EPOCH          = 2026-01-12T07:05:28.943232
MEAN_MOTION    = 14.85525876
ECCENTRICITY   = .00243346
INCLINATION    = 82.4833
RA_OF_ASC_NODE = 133.4588
ARG_OF_PERICENTER = 56.5730
MEAN_ANOMALY   = 303.7808

EPHEMERIS_TYPE = 0
CLASSIFICATION_TYPE = U
NORAD_CAT_ID   = 16792
ELEMENT_SET_NO = 999
REV_AT_EPOCH   = 11803
BSTAR          = .55405678E-4
MEAN_MOTION_DOT = .505E-5
MEAN_MOTION_DDOT = 0

CCSDS_OMM_VERS = 2.0
CREATION_DATE  = 
ORIGINATOR     = 

OBJECT_NAME    = SL-14 R/B
OBJECT_ID      = 1986-055B
CENTER_NAME    = EARTH
REF_FRAME      = TEME
TIME_SYSTEM    = UTC
MEAN_ELEMENT_THEORY = SGP/SGP4

EPOCH          = 2026-01-12T05:31:44.882976
MEAN_MOTION    = 14.85569294
ECCENTRICITY   = .00195211
INCLINATION    = 82.5202
RA_OF_ASC_NODE = 179.7209
ARG_OF_PERICENTER = 155.0270
MEAN_ANOMALY   = 292.6549

EPHEMERIS_TYPE = 0
CLASSIFICATION_TYPE = U
NORAD_CAT_ID   = 16882
ELEMENT_SET_NO = 999
REV_AT_EPOCH   = 11098
BSTAR          = .64120582E-4
MEAN_MOTION_DOT = .58E-5
MEAN_MOTION_DDOT = 0

CCSDS_OMM_VERS = 2.0
CREATION_DATE  = 
ORIGINATOR     = 

OBJECT_NAME    = AJISAI (EGS)
OBJECT_ID      = 1986-061A
CENTER_NAME    = EARTH
REF_FRAME      = TEME
TIME_SYSTEM    = UTC
MEAN_ELEMENT_THEORY = SGP/SGP4

EPOCH          = 2026-01-12T06:22:43.257216
MEAN_MOTION    = 12.44514850
ECCENTRICITY   = .00113073
INCLINATION    = 50.0087
RA_OF_ASC_NODE = 266.8534
ARG_OF_PERICENTER = 142.5322
MEAN_ANOMALY   = 314.0198

EPHEMERIS_TYPE = 0
CLASSIFICATION_TYPE = U
NORAD_CAT_ID   = 16908
ELEMENT_SET_NO = 999
REV_AT_EPOCH   = 46097
BSTAR          = .92490665E-4
MEAN_MOTION_DOT = -.84E-6
MEAN_MOTION_DDOT = 0

CCSDS_OMM_VERS = 2.0
CREATION_DATE  = 
ORIGINATOR     = 

OBJECT_NAME    = COSMOS 1812
OBJECT_ID      = 1987-003A
CENTER_NAME    = EARTH
REF_FRAME      = TEME
TIME_SYSTEM    = UTC
MEAN_ELEMENT_THEORY = SGP/SGP4

EPOCH          = 2026-01-12T05:03:40.589280
MEAN_MOTION    = 15.83442833
ECCENTRICITY   = .00031623
INCLINATION    = 82.4841
RA_OF_ASC_NODE = 258.8540
ARG_OF_PERICENTER = 51.8379
MEAN_ANOMALY   = 308.3175

EPHEMERIS_TYPE = 0
CLASSIFICATION_TYPE = U
NORAD_CAT_ID   = 17295
ELEMENT_SET_NO = 999
REV_AT_EPOCH   = 13546
BSTAR          = .65172283E-3
MEAN_MOTION_DOT = .143289E-2
MEAN_MOTION_DDOT = 0

CCSDS_OMM_VERS = 2.0
CREATION_DATE  = 
ORIGINATOR     = 

OBJECT_NAME    = SL-14 R/B
OBJECT_ID      = 1987-024B
CENTER_NAME    = EARTH
REF_FRAME      = TEME
TIME_SYSTEM    = UTC
MEAN_ELEMENT_THEORY = SGP/SGP4

EPOCH          = 2026-01-11T21:04:22.449504
MEAN_MOTION    = 14.86065467
ECCENTRICITY   = .00197284
INCLINATION    = 82.5296
RA_OF_ASC_NODE = 146.1435
ARG_OF_PERICENTER = 89.1665
MEAN_ANOMALY   = 271.1812

EPHEMERIS_TYPE = 0
CLASSIFICATION_TYPE = U
NORAD_CAT_ID   = 17567
ELEMENT_SET_NO = 999
REV_AT_EPOCH   = 7969
BSTAR          = .63393499E-4
MEAN_MOTION_DOT = .581E-5
MEAN_MOTION_DDOT = 0

CCSDS_OMM_VERS = 2.0
CREATION_DATE  = 
ORIGINATOR     = 

OBJECT_NAME    = COSMOS 1833
OBJECT_ID      = 1987-027A
CENTER_NAME    = EARTH
REF_FRAME      = TEME
TIME_SYSTEM    = UTC
MEAN_ELEMENT_THEORY = SGP/SGP4

EPOCH          = 2026-01-12T07:11:04.832736
MEAN_MOTION    = 14.13042042
ECCENTRICITY   = .0024
INCLINATION    = 70.9190
RA_OF_ASC_NODE = 84.5403
ARG_OF_PERICENTER = 289.5206
MEAN_ANOMALY   = 70.3323

EPHEMERIS_TYPE = 0
CLASSIFICATION_TYPE = U
NORAD_CAT_ID   = 17589
ELEMENT_SET_NO = 999
REV_AT_EPOCH   = 235
BSTAR          = .19194706E-3
MEAN_MOTION_DOT = .311E-5
MEAN_MOTION_DDOT = 0

CCSDS_OMM_VERS = 2.0
CREATION_DATE  = 
ORIGINATOR     = 

OBJECT_NAME    = SL-16 R/B
OBJECT_ID      = 1987-027B
CENTER_NAME    = EARTH
REF_FRAME      = TEME
TIME_SYSTEM    = UTC
MEAN_ELEMENT_THEORY = SGP/SGP4

EPOCH          = 2026-01-12T07:05:02.582592
MEAN_MOTION    = 14.17160071
ECCENTRICITY   = .00065752
INCLINATION    = 71.0032
RA_OF_ASC_NODE = 35.3309
ARG_OF_PERICENTER = 227.0188
MEAN_ANOMALY   = 133.0385

EPHEMERIS_TYPE = 0
CLASSIFICATION_TYPE = U
NORAD_CAT_ID   = 17590
ELEMENT_SET_NO = 999
REV_AT_EPOCH   = 735
BSTAR          = .84706523E-4
MEAN_MOTION_DOT = .123E-5
MEAN_MOTION_DDOT = 0

CCSDS_OMM_VERS = 2.0
CREATION_DATE  = 
ORIGINATOR     = 

OBJECT_NAME    = SL-14 R/B
OBJECT_ID      = 1987-038B
CENTER_NAME    = EARTH
REF_FRAME      = TEME
TIME_SYSTEM    = UTC
MEAN_ELEMENT_THEORY = SGP/SGP4

EPOCH          = 2026-01-12T07:34:02.850528
MEAN_MOTION    = 14.85298812
ECCENTRICITY   = .00191593
INCLINATION    = 82.5022
RA_OF_ASC_NODE = 349.8989
ARG_OF_PERICENTER = 355.9580
MEAN_ANOMALY   = 4.1478

EPHEMERIS_TYPE = 0
CLASSIFICATION_TYPE = U
NORAD_CAT_ID   = 17912
ELEMENT_SET_NO = 999
REV_AT_EPOCH   = 7086
BSTAR          = .60374481E-4
MEAN_MOTION_DOT = .544E-5
MEAN_MOTION_DDOT = 0

CCSDS_OMM_VERS = 2.0
CREATION_DATE  = 
ORIGINATOR     = 

OBJECT_NAME    = COSMOS 1844
OBJECT_ID      = 1987-041A
CENTER_NAME    = EARTH
REF_FRAME      = TEME
TIME_SYSTEM    = UTC
MEAN_ELEMENT_THEORY = SGP/SGP4

EPOCH          = 2026-01-12T07:45:31.778208
MEAN_MOTION    = 14.14538835
ECCENTRICITY   = .00283429
INCLINATION    = 70.8994
RA_OF_ASC_NODE = 153.0662
ARG_OF_PERICENTER = 108.4540
MEAN_ANOMALY   = 251.9666

EPHEMERIS_TYPE = 0
CLASSIFICATION_TYPE = U
NORAD_CAT_ID   = 17973
ELEMENT_SET_NO = 999
REV_AT_EPOCH   = 99561
BSTAR          = -.55146154E-4
MEAN_MOTION_DOT = -.155E-5
MEAN_MOTION_DDOT = 0

CCSDS_OMM_VERS = 2.0
CREATION_DATE  = 
ORIGINATOR     = 

OBJECT_NAME    = SL-14 R/B
OBJECT_ID      = 1987-055B
CENTER_NAME    = EARTH
REF_FRAME      = TEME
TIME_SYSTEM    = UTC
MEAN_ELEMENT_THEORY = SGP/SGP4

EPOCH          = 2026-01-12T04:00:44.889408
MEAN_MOTION    = 14.85557069
ECCENTRICITY   = .00201972
INCLINATION    = 82.4978
RA_OF_ASC_NODE = 42.3073
ARG_OF_PERICENTER = 196.3380
MEAN_ANOMALY   = 163.7188

EPHEMERIS_TYPE = 0
CLASSIFICATION_TYPE = U
NORAD_CAT_ID   = 18153
ELEMENT_SET_NO = 999
REV_AT_EPOCH   = 6154
BSTAR          = .50997833E-4
MEAN_MOTION_DOT = .466E-5
MEAN_MOTION_DDOT = 0

CCSDS_OMM_VERS = 2.0
CREATION_DATE  = 
ORIGINATOR     = 

OBJECT_NAME    = COSMOS 1867
OBJECT_ID      = 1987-060A
CENTER_NAME    = EARTH
REF_FRAME      = TEME
TIME_SYSTEM    = UTC
MEAN_ELEMENT_THEORY = SGP/SGP4

EPOCH          = 2026-01-12T06:32:14.019936
MEAN_MOTION    = 14.31492472
ECCENTRICITY   = .00138238
INCLINATION    = 65.0111
RA_OF_ASC_NODE = 104.6999
ARG_OF_PERICENTER = 274.1084
MEAN_ANOMALY   = 85.8420

EPHEMERIS_TYPE = 0
CLASSIFICATION_TYPE = U
NORAD_CAT_ID   = 18187
ELEMENT_SET_NO = 999
REV_AT_EPOCH   = 1186
BSTAR          = .1979561E-4
MEAN_MOTION_DOT = -.48E-6
MEAN_MOTION_DDOT = 0

CCSDS_OMM_VERS = 2.0
CREATION_DATE  = 
ORIGINATOR     = 

OBJECT_NAME    = SL-14 R/B
OBJECT_ID      = 1988-001B
CENTER_NAME    = EARTH
REF_FRAME      = TEME
TIME_SYSTEM    = UTC
MEAN_ELEMENT_THEORY = SGP/SGP4

EPOCH          = 2026-01-12T03:48:38.238624
MEAN_MOTION    = 14.85459925
ECCENTRICITY   = .00195108
INCLINATION    = 82.5117
RA_OF_ASC_NODE = 248.5376
ARG_OF_PERICENTER = 67.0883
MEAN_ANOMALY   = 293.2390

EPHEMERIS_TYPE = 0
CLASSIFICATION_TYPE = U
NORAD_CAT_ID   = 18749
ELEMENT_SET_NO = 999
REV_AT_EPOCH   = 3363
BSTAR          = .47120164E-4
MEAN_MOTION_DOT = .432E-5
MEAN_MOTION_DDOT = 0

